[{"OBJECT_NAME":"STARLINK-34980","OBJECT_ID":"2025-179Z","EPOCH":"2026-03-09T15:54:22.888224","MEAN_MOTION":15.05645298,"ECCENTRICITY":0.0002258,"INCLINATION":97.6034,"RA_OF_ASC_NODE":112.9269,"ARG_OF_PERICENTER":106.0664,"MEAN_ANOMALY":254.0812,"EPHEMERIS_TYPE":0,"CLASSIFICATION_TYPE":"U","NORAD_CAT_ID":65258,"ELEMENT_SET_NO":999,"REV_AT_EPOCH":3181,"BSTAR":-0.0002028248,"MEAN_MOTION_DOT":-2.986e-5,"MEAN_MOTION_DDOT":0},{"OBJECT_NAME":"CZ-2D DEB","OBJECT_ID":"2017-060C","EPOCH":"2026-03-09T12:36:22.356864","MEAN_MOTION":15.07716497,"ECCENTRICITY":0.0018685,"INCLINATION":98.2453,"RA_OF_ASC_NODE":267.9231,"ARG_OF_PERICENTER":71.2095,"MEAN_ANOMALY":289.1156,"EPHEMERIS_TYPE":0,"CLASSIFICATION_TYPE":"U","NORAD_CAT_ID":44610,"ELEMENT_SET_NO":999,"REV_AT_EPOCH":45422,"BSTAR":0.00057216024,"MEAN_MOTION_DOT":8.702e-5,"MEAN_MOTION_DDOT":0}]
